SKYKRAFT-1A             
1 55054U 23001AX  26068.71064616  .00008177  00000+0  30069-3 0  9991
2 55054  97.3349 127.6290 0011277 121.5092 238.7251 15.28083228176529
STARLINK-35416          
1 66248U 25245Q   26068.86677438  .00030403  00000+0  10330-2 0  9993
2 66248  53.1591 283.0705 0001605  57.4199 302.6957 15.30244737 21229
